[{"OBJECT_NAME":"REIMEI (INDEX)","OBJECT_ID":"2005-031B","EPOCH":"2026-03-09T21:15:47.083968","MEAN_MOTION":15.09838737,"ECCENTRICITY":0.00209792,"INCLINATION":97.9988,"RA_OF_ASC_NODE":188.389,"ARG_OF_PERICENTER":89.5619,"MEAN_ANOMALY":270.8013,"EPHEMERIS_TYPE":0,"CLASSIFICATION_TYPE":"U","NORAD_CAT_ID":28810,"ELEMENT_SET_NO":999,"REV_AT_EPOCH":11600,"BSTAR":0.00050498736,"MEAN_MOTION_DOT":8.144e-5,"MEAN_MOTION_DDOT":0},{"OBJECT_NAME":"STARLINK-5443","OBJECT_ID":"2022-175Z","EPOCH":"2026-03-09T07:43:29.461728","MEAN_MOTION":15.08833791,"ECCENTRICITY":0.00014584,"INCLINATION":53.2191,"RA_OF_ASC_NODE":30.7895,"ARG_OF_PERICENTER":89.9978,"MEAN_ANOMALY":270.1181,"EPHEMERIS_TYPE":0,"CLASSIFICATION_TYPE":"U","NORAD_CAT_ID":54781,"ELEMENT_SET_NO":999,"REV_AT_EPOCH":18007,"BSTAR":4.6012191e-5,"MEAN_MOTION_DOT":4.44e-6,"MEAN_MOTION_DDOT":0}]
